0 SL-6 R/B(2)
1 25330U 98027D   13282.06878843 -.00000831  00000-0  00000+0 0  1410
2 25330 066.0801 151.2589 6495563 223.6233 347.9052 02.03480876114628
0 SL-6 R/B(2)
1 25330U 98027D   13290.52406787  .00000000  00000-0  10000-3 0  1427
2 25330 066.0731 150.5717 6499503 223.4438 061.4563 02.03466479114806
0 SL-6 R/B(2)
1 25330U 98027D   13290.52408721  .00000130  00000-0  10000-3 0  1432
2 25330 066.0737 150.5749 6499644 223.4447 061.4525 02.03466320114806
0 SL-6 R/B(2)
1 25330U 98027D   13290.78479630 -.00000191  00000-0  00000+0 0  1441
2 25330 066.0791 150.5140 6500860 223.4714 252.4197 02.03466456114808
0 SL-6 R/B(2)
1 25330U 98027D   13292.81797830  .00000113  00000-0  00000+0 0  1456
2 25330 066.0791 150.3395 6502083 223.4356 301.6720 02.03463791114841
